******** Week 361 almanac for PRN-18 ********
ID:                         18
Health:                     000
Eccentricity:               0.5761146545E-002
Time of Applicability(s):  405504.0000
Orbital Inclination(rad):   0.9720069262
Rate of Right Ascen(r/s):  -0.7817468486E-008
SQRT(A)  (m 1/2):           5153.591797
Right Ascen at Week(rad):   0.2955704967E+001
Argument of Perigee(rad):  -2.867001104
Mean Anom(rad):            -0.6162063742E-001
Af0(s):                    -0.4034042358E-003
Af1(s/s):                   0.1091393642E-010
week:                        361

******** Week 361 almanac for PRN-19 ********
ID:                         19
Health:                     000
Eccentricity:               0.1116275787E-001
Time of Applicability(s):  405504.0000
Orbital Inclination(rad):   0.9580093516
Rate of Right Ascen(r/s):  -0.7817468486E-008
SQRT(A)  (m 1/2):           5153.672852
Right Ascen at Week(rad):   0.1988987353E+001
Argument of Perigee(rad):   2.935709287
Mean Anom(rad):            -0.2556113083E+001
Af0(s):                     0.6933212280E-003
Af1(s/s):                   0.0000000000E+000
week:                        361

******** Week 361 almanac for PRN-20 ********
ID:                         20
Health:                     063
Eccentricity:               0.2274513245E-002
Time of Applicability(s):  405504.0000
Orbital Inclination(rad):   0.9600586540
Rate of Right Ascen(r/s):  -0.7863184676E-008
SQRT(A)  (m 1/2):           5153.707520
Right Ascen at Week(rad):  -0.1274228331E+001
Argument of Perigee(rad):  -1.998467998
Mean Anom(rad):            -0.1524138369E+001
Af0(s):                     0.4768371582E-004
Af1(s/s):                   0.2182787284E-010
week:                        361

******** Week 361 almanac for PRN-21 ********
ID:                         21
Health:                     000
Eccentricity:               0.7596015930E-003
Time of Applicability(s):  405504.0000
Orbital Inclination(rad):   0.9628509784
Rate of Right Ascen(r/s):  -0.8068907531E-008
SQRT(A)  (m 1/2):           5153.719727
Right Ascen at Week(rad):  -0.2280118256E+001
Argument of Perigee(rad):  -0.304602295
Mean Anom(rad):            -0.1819940123E+001
Af0(s):                     0.4081726074E-003
Af1(s/s):                   0.3637978807E-011
week:                        361

******** Week 361 almanac for PRN-22 ********
ID:                         22
Health:                     000
Eccentricity:               0.1207304001E-001
Time of Applicability(s):  405504.0000
Orbital Inclination(rad):   0.9576797854
Rate of Right Ascen(r/s):  -0.7851755629E-008
SQRT(A)  (m 1/2):           5153.566895
Right Ascen at Week(rad):   0.9310514368E+000
Argument of Perigee(rad):  -0.993043585
Mean Anom(rad):             0.2569752254E+001
Af0(s):                    -0.3528594971E-004
Af1(s/s):                   0.3637978807E-011
week:                        361

******** Week 361 almanac for PRN-23 ********
ID:                         23
Health:                     000
Eccentricity:               0.6047725677E-002
Time of Applicability(s):  405504.0000
Orbital Inclination(rad):   0.9879759059
Rate of Right Ascen(r/s):  -0.7794610391E-008
SQRT(A)  (m 1/2):           5153.661133
Right Ascen at Week(rad):  -0.2320709200E+001
Argument of Perigee(rad):  -2.739303196
Mean Anom(rad):            -0.1202513605E+001
Af0(s):                     0.6227493286E-003
Af1(s/s):                   0.3637978807E-011
week:                        361

******** Week 361 almanac for PRN-24 ********
ID:                         24
Health:                     000
Eccentricity:               0.1791667938E-001
Time of Applicability(s):  405504.0000
Orbital Inclination(rad):   0.9352573006
Rate of Right Ascen(r/s):  -0.7988904198E-008
SQRT(A)  (m 1/2):           5153.591797
Right Ascen at Week(rad):  -0.3154607522E+000
Argument of Perigee(rad):   1.136706728
Mean Anom(rad):             0.1438372889E+000
Af0(s):                    -0.8487701416E-004
Af1(s/s):                   0.1818989404E-010
week:                        361

******** Week 361 almanac for PRN-25 ********
ID:                         25
Health:                     000
Eccentricity:               0.1293420792E-001
Time of Applicability(s):  405504.0000
Orbital Inclination(rad):   0.9475351390
Rate of Right Ascen(r/s):  -0.7954617056E-008
SQRT(A)  (m 1/2):           5153.660156
Right Ascen at Week(rad):   0.8167987052E+000
Argument of Perigee(rad):   1.158264851
Mean Anom(rad):            -0.1636752632E+001
Af0(s):                     0.4377365112E-003
Af1(s/s):                  -0.3637978807E-011
week:                        361

******** Week 361 almanac for PRN-26 ********
ID:                         26
Health:                     000
Eccentricity:               0.1101446152E-001
Time of Applicability(s):  405504.0000
Orbital Inclination(rad):   0.9283483949
Rate of Right Ascen(r/s):  -0.8148910863E-008
SQRT(A)  (m 1/2):           5153.658203
Right Ascen at Week(rad):   0.7420804335E+000
Argument of Perigee(rad):   0.710782881
Mean Anom(rad):            -0.2457439844E+001
Af0(s):                    -0.3395080566E-003
Af1(s/s):                  -0.3637978807E-011
week:                        361

******** Week 361 almanac for PRN-27 ********
ID:                         27
Health:                     000
Eccentricity:               0.1436901093E-001
Time of Applicability(s):  405504.0000
Orbital Inclination(rad):   0.9522269630
Rate of Right Ascen(r/s):  -0.7908900866E-008
SQRT(A)  (m 1/2):           5153.615723
Right Ascen at Week(rad):   0.1872325418E+001
Argument of Perigee(rad):   0.883603269
Mean Anom(rad):             0.2088568772E+001
Af0(s):                    -0.6675720215E-004
Af1(s/s):                  -0.1091393642E-010
week:                        361

******** Week 361 almanac for PRN-28 ********
ID:                         28
Health:                     000
Eccentricity:               0.4239082336E-003
Time of Applicability(s):  405504.0000
Orbital Inclination(rad):   0.9622218066
Rate of Right Ascen(r/s):  -0.7680319916E-008
SQRT(A)  (m 1/2):           5153.749512
Right Ascen at Week(rad):  -0.2324434047E+000
Argument of Perigee(rad):  -0.052369565
Mean Anom(rad):            -0.4626805885E+000
Af0(s):                    -0.5798339844E-003
Af1(s/s):                   0.7275957614E-011
week:                        361

******** Week 361 almanac for PRN-29 ********
ID:                         29
Health:                     000
Eccentricity:               0.3388881683E-002
Time of Applicability(s):  405504.0000
Orbital Inclination(rad):   0.9614787847
Rate of Right Ascen(r/s):  -0.7783181344E-008
SQRT(A)  (m 1/2):           5153.705566
Right Ascen at Week(rad):   0.1961847203E+001
Argument of Perigee(rad):   2.743006321
Mean Anom(rad):             0.1947369136E+001
Af0(s):                    -0.3604888916E-003
Af1(s/s):                   0.7275957614E-011
week:                        361

******** Week 361 almanac for PRN-30 ********
ID:                         30
Health:                     000
Eccentricity:               0.8097648621E-002
Time of Applicability(s):  405504.0000
Orbital Inclination(rad):   0.9365515969
Rate of Right Ascen(r/s):  -0.7943188009E-008
SQRT(A)  (m 1/2):           5153.697266
Right Ascen at Week(rad):  -0.2159564818E+000
Argument of Perigee(rad):  -2.312925072
Mean Anom(rad):            -0.1018481601E+001
Af0(s):                     0.1497268677E-003
Af1(s/s):                   0.1455191523E-010
week:                        361

******** Week 361 almanac for PRN-31 ********
ID:                         31
Health:                     000
Eccentricity:               0.1084709167E-001
Time of Applicability(s):  405504.0000
Orbital Inclination(rad):   0.9550612322
Rate of Right Ascen(r/s):  -0.7760323249E-008
SQRT(A)  (m 1/2):           5153.520508
Right Ascen at Week(rad):  -0.1825631881E+000
Argument of Perigee(rad):   0.937271250
Mean Anom(rad):            -0.1931062725E+001
Af0(s):                    -0.1621246338E-003
Af1(s/s):                   0.3637978807E-011
week:                        361

******** Week 361 almanac for PRN-32 ********
ID:                         32
Health:                     000
Eccentricity:               0.9372234344E-002
Time of Applicability(s):  405504.0000
Orbital Inclination(rad):   0.9676985974
Rate of Right Ascen(r/s):  -0.7783181344E-008
SQRT(A)  (m 1/2):           5153.689941
Right Ascen at Week(rad):  -0.1262753061E+001
Argument of Perigee(rad):  -1.994918421
Mean Anom(rad):             0.2659039599E+001
Af0(s):                    -0.5245208740E-004
Af1(s/s):                   0.1818989404E-010
week:                        361

